{
  "norad_id": 59610,
  "name": "STARLINK-31729",
  "history": [
    {
      "epoch": "2026-03-28T20:56:29.861376",
      "apogee_km": 484.05707171061476,
      "perigee_km": 482.034395040816,
      "latitude_deg": 35.57083419389233,
      "longitude_deg": -135.2334873599466,
      "semi_major_axis_km": 6861.1827333757155,
      "eccentricity": 0.0001474,
      "inclination_deg": 43.0035,
      "raan_deg": 286.3547,
      "arg_perigee_deg": 266.2761,
      "mean_anomaly_deg": 93.7922,
      "mean_motion_rev_day": 15.27581123
    }
  ]
}